{
  "norad_id": 68784,
  "name": "STARLINK-37401",
  "history": [
    {
      "epoch": "2026-04-27T13:25:13.525248Z",
      "apogee_km": 286.3064019466474,
      "perigee_km": 282.554710155835,
      "latitude_deg": 7.799044448860785e-06,
      "longitude_deg": 96.13818455087917,
      "height_km": 285.75226675053216,
      "semi_major_axis_km": 6662.567556051241,
      "eccentricity": 0.00028155,
      "inclination_deg": 97.279,
      "raan_deg": 152.9918,
      "arg_perigee_deg": 2.1202,
      "mean_anomaly_deg": 358.0086,
      "mean_motion_rev_day": 15.9639487
    }
  ]
}