STARLINK-37401          
1 68784U 26086U   26117.55918432 -.00380304  51895-4 -91445-3 0  9997
2 68784  97.2790 152.9918 0002815   2.1202 358.0086 15.96394870  1189
